COMMENT,ORIGINATOR,NORAD_CAT_ID,OBJECT_NAME,OBJECT_TYPE,CLASSIFICATION_TYPE,INTLDES,EPOCH,EPOCH_MICROSECONDS,MEAN_MOTION,ECCENTRICITY,INCLINATION,RA_OF_ASC_NODE,ARG_OF_PERICENTER,MEAN_ANOMALY,EPHEMERIS_TYPE,ELEMENT_SET_NO,REV_AT_EPOCH,BSTAR,MEAN_MOTION_DOT,MEAN_MOTION_DDOT,FILE,TLE_LINE0,TLE_LINE1,TLE_LINE2,OBJECT_ID,OBJECT_NUMBER,SEMIMAJOR_AXIS,PERIOD,APOGEE,PERIGEE,DECAYED
"GENERATED VIA SPACETRACK.ORG API","18 SPCS","48886","SPACEBEE-102","PAYLOAD","U","21059H","2022-03-25 20:10:29","711424","15.13870569","0.0009016","97.5407","215.0394","41.7723","318.4195","0","999","4127","0.00046261","0.00008313","0","3374844","0 SPACEBEE-102","1 48886U 21059H   22084.84062166  .00008313  00000-0  46261-3 0  9997","2 48886  97.5407 215.0394 0009016  41.7723 318.4195 15.13870569 41272","2021-059H","48886","6902.547","95.120","530.635","518.188","0"
"GENERATED VIA SPACETRACK.ORG API","18 SPCS","48886","SPACEBEE-102","PAYLOAD","U","21059H","2022-03-26 04:06:23","865120","15.13874787","0.0009001","97.5409","215.3668","40.9839","319.2067","0","999","4132","0.00043456","0.00007805","0","3374646","0 SPACEBEE-102","1 48886U 21059H   22085.17110955  .00007805  00000-0  43456-3 0  9992","2 48886  97.5409 215.3668 0009001  40.9839 319.2067 15.13874787 41323","2021-059H","48886","6902.534","95.120","530.612","518.186","0"
"GENERATED VIA SPACETRACK.ORG API","18 SPCS","48886","SPACEBEE-102","PAYLOAD","U","21059H","2022-03-26 07:16:45","503616","15.13876951","0.0008996","97.5409","215.4978","40.579","319.6111","0","999","4134","0.00043425","0.000078","0","3375254","0 SPACEBEE-102","1 48886U 21059H   22085.30330444  .00007800  00000-0  43425-3 0  9995","2 48886  97.5409 215.4978 0008996  40.5790 319.6111 15.13876951 41343","2021-059H","48886","6902.527","95.120","530.602","518.183","0"
"GENERATED VIA SPACETRACK.ORG API","18 SPCS","48886","SPACEBEE-102","PAYLOAD","U","21059H","2022-03-26 21:33:22","664736","15.13886535","0.0008989","97.5411","216.0869","38.9747","321.213","0","999","4143","0.00043843","0.00007878","0","3375650","0 SPACEBEE-102","1 48886U 21059H   22085.89817899  .00007878  00000-0  43843-3 0  9992","2 48886  97.5411 216.0869 0008989  38.9747 321.2130 15.13886535 41436","2021-059H","48886","6902.498","95.119","530.568","518.158","0"
"GENERATED VIA SPACETRACK.ORG API","18 SPCS","48886","SPACEBEE-102","PAYLOAD","U","21059H","2022-03-27 08:39:37","940256","15.13895072","0.0008977","97.5411","216.5451","37.6053","322.5805","0","999","4150","0.00045048","0.00008099","0","3376479","0 SPACEBEE-102","1 48886U 21059H   22086.36085579  .00008099  00000-0  45048-3 0  9992","2 48886  97.5411 216.5451 0008977  37.6053 322.5805 15.13895072 41508","2021-059H","48886","6902.472","95.119","530.533","518.141","0"
"GENERATED VIA SPACETRACK.ORG API","18 SPCS","48886","SPACEBEE-102","PAYLOAD","U","21059H","2022-03-27 08:39:37","940256","15.13895072","0.0008977","97.5411","216.5451","37.6053","322.5805","0","999","4150","0.00045048","0.00008099","0","3376641","0 SPACEBEE-102","1 48886U 21059H   22086.36085579  .00008099  00000-0  45048-3 0  9992","2 48886  97.5411 216.5451 0008977  37.6053 322.5805 15.13895072 41508","2021-059H","48886","6902.472","95.119","530.533","518.141","0"
"GENERATED VIA SPACETRACK.ORG API","18 SPCS","48886","SPACEBEE-102","PAYLOAD","U","21059H","2022-03-27 21:21:03","737376","15.13905711","0.0008934","97.5413","217.0689","36.0274","324.1558","0","999","4158","0.00050628","0.00009114","0","3377053","0 SPACEBEE-102","1 48886U 21059H   22086.88962659  .00009114  00000-0  50628-3 0  9991","2 48886  97.5413 217.0689 0008934  36.0274 324.1558 15.13905711 41583","2021-059H","48886","6902.440","95.118","530.471","518.138","0"
"GENERATED VIA SPACETRACK.ORG API","18 SPCS","48886","SPACEBEE-102","PAYLOAD","U","21059H","2022-03-28 08:27:18","487584","15.13917098","0.0008908","97.5414","217.5271","34.6062","325.5747","0","999","4165","0.0005831","0.00010512","0","3377801","0 SPACEBEE-102","1 48886U 21059H   22087.35229731  .00010512  00000-0  58310-3 0  9991","2 48886  97.5414 217.5271 0008908  34.6062 325.5747 15.13917098 41650","2021-059H","48886","6902.405","95.117","530.419","518.121","0"
"GENERATED VIA SPACETRACK.ORG API","18 SPCS","48886","SPACEBEE-102","PAYLOAD","U","21059H","2022-03-28 21:08:43","666944","15.13925795","0.0008853","97.5415","218.0509","32.9069","327.2712","0","999","4173","0.00052067","0.0000938","0","3378095","0 SPACEBEE-102","1 48886U 21059H   22087.88106096  .00009380  00000-0  52067-3 0  9991","2 48886  97.5415 218.0509 0008853  32.9069 327.2712 15.13925795 41731","2021-059H","48886","6902.379","95.117","530.354","518.133","0"
"GENERATED VIA SPACETRACK.ORG API","18 SPCS","48886","SPACEBEE-102","PAYLOAD","U","21059H","2022-03-28 21:08:43","666944","15.13925795","0.0008853","97.5415","218.0509","32.9069","327.2712","0","999","4173","0.00052067","0.0000938","0","3378342","0 SPACEBEE-102","1 48886U 21059H   22087.88106096  .00009380  00000-0  52067-3 0  9991","2 48886  97.5415 218.0509 0008853  32.9069 327.2712 15.13925795 41731","2021-059H","48886","6902.379","95.117","530.354","518.133","0"
"GENERATED VIA SPACETRACK.ORG API","18 SPCS","48886","SPACEBEE-102","PAYLOAD","U","21059H","2022-03-29 08:14:57","883200","15.13935491","0.000881","97.5415","218.5092","31.2301","328.9452","0","999","4180","0.00051993","0.00009369","0","3379323","0 SPACEBEE-102","1 48886U 21059H   22088.34372550  .00009369  00000-0  51993-3 0  9997","2 48886  97.5415 218.5092 0008810  31.2301 328.9452 15.13935491 41808","2021-059H","48886","6902.349","95.116","530.295","518.133","0"
"GENERATED VIA SPACETRACK.ORG API","18 SPCS","48886","SPACEBEE-102","PAYLOAD","U","21059H","2022-03-29 20:56:22","397280","15.13947674","0.0008759","97.5417","219.0329","29.3939","330.7783","0","999","4188","0.00055588","0.00010026","0","3379484","0 SPACEBEE-102","1 48886U 21059H   22088.87248145  .00010026  00000-0  55588-3 0  9993","2 48886  97.5417 219.0329 0008759  29.3939 330.7783 15.13947674 41888","2021-059H","48886","6902.312","95.116","530.223","518.131","0"
"GENERATED VIA SPACETRACK.ORG API","18 SPCS","48886","SPACEBEE-102","PAYLOAD","U","21059H","2022-03-30 00:06:43","473312","15.13950433","0.0008729","97.5418","219.1638","28.8223","331.3489","0","999","4190","0.00056715","0.00010231","0","3379721","0 SPACEBEE-102","1 48886U 21059H   22089.00466983  .00010231  00000-0  56715-3 0  9992","2 48886  97.5418 219.1638 0008729  28.8223 331.3489 15.13950433 41900","2021-059H","48886","6902.304","95.115","530.194","518.144","0"
"GENERATED VIA SPACETRACK.ORG API","18 SPCS","48886","SPACEBEE-102","PAYLOAD","U","21059H","2022-03-30 08:02:36","75264","15.13957445","0.0008718","97.5418","219.4913","27.885","332.2847","0","999","4195","0.00055136","0.00009946","0","3380779","0 SPACEBEE-102","1 48886U 21059H   22089.33513976  .00009946  00000-0  55136-3 0  9990","2 48886  97.5418 219.4913 0008718  27.8850 332.2847 15.13957445 41955","2021-059H","48886","6902.282","95.115","530.165","518.130","0"
"GENERATED VIA SPACETRACK.ORG API","18 SPCS","48886","SPACEBEE-102","PAYLOAD","U","21059H","2022-03-30 20:43:59","990592","15.13969681","0.0008667","97.5419","220.015","25.7047","334.4613","0","999","4203","0.00064508","0.00011655","0","3380787","0 SPACEBEE-102","1 48886U 21059H   22089.86388878  .00011655  00000-0  64508-3 0  9992","2 48886  97.5419 220.0150 0008667  25.7047 334.4613 15.13969681 42035","2021-059H","48886","6902.245","95.114","530.092","518.128","0"
"GENERATED VIA SPACETRACK.ORG API","18 SPCS","48886","SPACEBEE-102","PAYLOAD","U","21059H","2022-03-31 03:04:41","768544","15.13979148","0.0008636","97.542","220.2768","24.6517","335.5125","0","999","4207","0.0008153","0.00014757","0","3381107","0 SPACEBEE-102","1 48886U 21059H   22090.12826121  .00014757  00000-0  81530-3 0  9991","2 48886  97.5420 220.2768 0008636  24.6517 335.5125 15.13979148 42073","2021-059H","48886","6902.217","95.114","530.042","518.121","0"
"GENERATED VIA SPACETRACK.ORG API","18 SPCS","48886","SPACEBEE-102","PAYLOAD","U","21059H","2022-03-31 07:50:13","53408","15.13984382","0.0008636","97.542","220.4732","23.9707","336.1925","0","999","4210","0.00082175","0.00014877","0","3381849","0 SPACEBEE-102","1 48886U 21059H   22090.32653997  .00014877  00000-0  82175-3 0  9991","2 48886  97.5420 220.4732 0008636  23.9707 336.1925 15.13984382 42104","2021-059H","48886","6902.201","95.113","530.026","518.105","0"
"GENERATED VIA SPACETRACK.ORG API","18 SPCS","48886","SPACEBEE-102","PAYLOAD","U","21059H","2022-03-31 20:31:36","184224","15.1399947","0.0008633","97.5422","220.997","21.8366","338.3232","0","999","4218","0.00091479","0.0001658","0","3382347","0 SPACEBEE-102","1 48886U 21059H   22090.85527991  .00016580  00000-0  91479-3 0  9993","2 48886  97.5422 220.9970 0008633  21.8366 338.3232 15.13999470 42187","2021-059H","48886","6902.155","95.112","529.978","518.061","0"
"GENERATED VIA SPACETRACK.ORG API","18 SPCS","48886","SPACEBEE-102","PAYLOAD","U","21059H","2022-04-01 04:27:27","845280","15.14008186","0.0008588","97.5423","221.3241","20.6492","339.5085","0","999","4223","0.00085185","0.00015436","0","3382673","0 SPACEBEE-102","1 48886U 21059H   22091.18573895  .00015436  00000-0  85185-3 0  9990","2 48886  97.5423 221.3241 0008588  20.6492 339.5085 15.14008186 42231","2021-059H","48886","6902.128","95.112","529.921","518.066","0"
"GENERATED VIA SPACETRACK.ORG API","18 SPCS","48886","SPACEBEE-102","PAYLOAD","U","21059H","2022-04-01 13:58:29","616672","15.14021093","0.0008578","97.5425","221.7168","19.3232","340.8323","0","999","4229","0.00089496","0.00016228","0","3383353","0 SPACEBEE-102","1 48886U 21059H   22091.58228723  .00016228  00000-0  89496-3 0  9990","2 48886  97.5425 221.7168 0008578  19.3232 340.8323 15.14021093 42299","2021-059H","48886","6902.089","95.111","529.875","518.033","0"
